{
  "norad_id": 56918,
  "name": "STARLINK-5951",
  "history": [
    {
      "epoch": "2026-04-16T18:08:21.560640Z",
      "apogee_km": 486.7892906279849,
      "perigee_km": 484.37326179475895,
      "latitude_deg": 1.1516291274537428e-05,
      "longitude_deg": 98.38582210811622,
      "height_km": 485.4089270993222,
      "semi_major_axis_km": 6863.718276211372,
      "eccentricity": 0.000176,
      "inclination_deg": 43.003,
      "raan_deg": 215.3746,
      "arg_perigee_deg": 267.6159,
      "mean_anomaly_deg": 92.4491,
      "mean_motion_rev_day": 15.2673474
    },
    {
      "epoch": "2026-04-18T00:00:04.000320Z",
      "apogee_km": 486.9831897741078,
      "perigee_km": 484.0729957747708,
      "latitude_deg": 4.5749932473178,
      "longitude_deg": 7.109359351580906,
      "height_km": 485.05723355153697,
      "semi_major_axis_km": 6863.665092774439,
      "eccentricity": 0.000212,
      "inclination_deg": 43.0033,
      "raan_deg": 208.3566,
      "arg_perigee_deg": 267.607,
      "mean_anomaly_deg": 99.1297,
      "mean_motion_rev_day": 15.26752485
    },
    {
      "epoch": "2026-04-18T17:14:36.142368Z",
      "apogee_km": 486.88524699053414,
      "perigee_km": 484.26605424305944,
      "latitude_deg": 4.154153743987963e-06,
      "longitude_deg": 98.81986405666703,
      "height_km": 485.41301319983774,
      "semi_major_axis_km": 6863.712650616797,
      "eccentricity": 0.0001908,
      "inclination_deg": 43.0037,
      "raan_deg": 204.3039,
      "arg_perigee_deg": 267.384,
      "mean_anomaly_deg": 92.6793,
      "mean_motion_rev_day": 15.26736617
    },
    {
      "epoch": "2026-04-19T16:47:43.255680Z",
      "apogee_km": 486.88129996506814,
      "perigee_km": 484.2332867066989,
      "latitude_deg": -2.067015919336841e-05,
      "longitude_deg": 99.03795262263377,
      "height_km": 485.3390875521369,
      "semi_major_axis_km": 6863.694293335883,
      "eccentricity": 0.0001929,
      "inclination_deg": 43.0039,
      "raan_deg": 198.7689,
      "arg_perigee_deg": 269.8202,
      "mean_anomaly_deg": 90.2428,
      "mean_motion_rev_day": 15.26742742
    },
    {
      "epoch": "2026-04-20T05:21:23.029344Z",
      "apogee_km": 486.87570598202,
      "perigee_km": 484.2315378068415,
      "latitude_deg": 2.250099594251712e-05,
      "longitude_deg": -92.84558973575223,
      "height_km": 485.30076000057664,
      "semi_major_axis_km": 6863.6906218944305,
      "eccentricity": 0.00019262,
      "inclination_deg": 43.0038,
      "raan_deg": 195.8169,
      "arg_perigee_deg": 271.3214,
      "mean_anomaly_deg": 88.7417,
      "mean_motion_rev_day": 15.26743967
    },
    {
      "epoch": "2026-04-21T15:53:58.456032Z",
      "apogee_km": 486.77259905896517,
      "perigee_km": 484.34559611885834,
      "latitude_deg": -1.410648797333503e-05,
      "longitude_deg": 99.4669188269915,
      "height_km": 485.58820599098914,
      "semi_major_axis_km": 6863.6960975889115,
      "eccentricity": 0.0001768,
      "inclination_deg": 43.0043,
      "raan_deg": 187.6957,
      "arg_perigee_deg": 258.0332,
      "mean_anomaly_deg": 102.0321,
      "mean_motion_rev_day": 15.2674214
    },
    {
      "epoch": "2026-04-22T15:27:05.107104Z",
      "apogee_km": 486.83982636919336,
      "perigee_km": 484.26457018200017,
      "latitude_deg": 1.2662091787398722e-05,
      "longitude_deg": 99.69009211364474,
      "height_km": 485.2459606874685,
      "semi_major_axis_km": 6863.689198275596,
      "eccentricity": 0.0001876,
      "inclination_deg": 43.004,
      "raan_deg": 182.1638,
      "arg_perigee_deg": 273.7339,
      "mean_anomaly_deg": 86.3298,
      "mean_motion_rev_day": 15.26744442
    },
    {
      "epoch": "2026-04-22T21:43:55.043616Z",
      "apogee_km": 486.8710963041658,
      "perigee_km": 484.27112367210157,
      "latitude_deg": -2.1779126747672558e-05,
      "longitude_deg": 3.747253426404599,
      "height_km": 485.3427157720629,
      "semi_major_axis_km": 6863.708109988133,
      "eccentricity": 0.0001894,
      "inclination_deg": 43.0044,
      "raan_deg": 180.687,
      "arg_perigee_deg": 270.2673,
      "mean_anomaly_deg": 89.7961,
      "mean_motion_rev_day": 15.26738132
    },
    {
      "epoch": "2026-04-24T14:33:19.152288Z",
      "apogee_km": 486.93805548282216,
      "perigee_km": 484.13218631979635,
      "latitude_deg": -3.093194907914422e-05,
      "longitude_deg": 100.12573234843795,
      "height_km": 485.2391418108231,
      "semi_major_axis_km": 6863.6721209013085,
      "eccentricity": 0.0002044,
      "inclination_deg": 43.0049,
      "raan_deg": 171.0925,
      "arg_perigee_deg": 273.0164,
      "mean_anomaly_deg": 87.0453,
      "mean_motion_rev_day": 15.2675014
    },
    {
      "epoch": "2026-04-25T14:06:26.340768Z",
      "apogee_km": 486.96299249053664,
      "perigee_km": 484.1461334730893,
      "latitude_deg": -1.6540540003395004e-05,
      "longitude_deg": 100.34584916540081,
      "height_km": 484.9443442506578,
      "semi_major_axis_km": 6863.691562981813,
      "eccentricity": 0.0002052,
      "inclination_deg": 43.0045,
      "raan_deg": 165.5598,
      "arg_perigee_deg": 285.9914,
      "mean_anomaly_deg": 74.0711,
      "mean_motion_rev_day": 15.26743653
    },
    {
      "epoch": "2026-04-26T19:56:23.296416Z",
      "apogee_km": 486.83444225446874,
      "perigee_km": 484.27634409953225,
      "latitude_deg": 6.520661871782891e-05,
      "longitude_deg": 4.620744835811128,
      "height_km": 485.19346257863094,
      "semi_major_axis_km": 6863.692393177001,
      "eccentricity": 0.00018635,
      "inclination_deg": 43.0037,
      "raan_deg": 158.5471,
      "arg_perigee_deg": 276.2615,
      "mean_anomaly_deg": 83.8025,
      "mean_motion_rev_day": 15.26743376
    },
    {
      "epoch": "2026-04-27T19:29:30.574752Z",
      "apogee_km": 486.7515611548315,
      "perigee_km": 484.36299554596644,
      "latitude_deg": 2.0459013343428554e-05,
      "longitude_deg": 4.838124318749405,
      "height_km": 485.1753652119345,
      "semi_major_axis_km": 6863.694278350399,
      "eccentricity": 0.000174,
      "inclination_deg": 43.0034,
      "raan_deg": 153.0121,
      "arg_perigee_deg": 277.6681,
      "mean_anomaly_deg": 82.3973,
      "mean_motion_rev_day": 15.26742747
    },
    {
      "epoch": "2026-04-28T12:45:48.004704Z",
      "apogee_km": 486.6894428676296,
      "perigee_km": 484.418933822526,
      "latitude_deg": 2.242205853404584e-05,
      "longitude_deg": 100.9973865007857,
      "height_km": 485.07472434495395,
      "semi_major_axis_km": 6863.6911883450775,
      "eccentricity": 0.0001654,
      "inclination_deg": 43.0036,
      "raan_deg": 148.9533,
      "arg_perigee_deg": 283.0766,
      "mean_anomaly_deg": 76.9901,
      "mean_motion_rev_day": 15.26743778
    },
    {
      "epoch": "2026-04-29T12:18:55.218240Z",
      "apogee_km": 486.68135686470396,
      "perigee_km": 484.43692822609137,
      "latitude_deg": -4.036418127564363e-05,
      "longitude_deg": 101.21511718875912,
      "height_km": 485.1161402147556,
      "semi_major_axis_km": 6863.696142545397,
      "eccentricity": 0.0001635,
      "inclination_deg": 43.0035,
      "raan_deg": 143.4184,
      "arg_perigee_deg": 281.3252,
      "mean_anomaly_deg": 78.7415,
      "mean_motion_rev_day": 15.26742125
    },
    {
      "epoch": "2026-04-30T02:26:47.621184Z",
      "apogee_km": 486.66500043791984,
      "perigee_km": 484.46134086113034,
      "latitude_deg": 1.5567146129345503e-05,
      "longitude_deg": -114.65381740300697,
      "height_km": 485.03020548281836,
      "semi_major_axis_km": 6863.700170649525,
      "eccentricity": 0.00016053,
      "inclination_deg": 43.0036,
      "raan_deg": 140.0981,
      "arg_perigee_deg": 286.3575,
      "mean_anomaly_deg": 73.71,
      "mean_motion_rev_day": 15.26740781
    },
    {
      "epoch": "2026-05-02T01:33:03.866112Z",
      "apogee_km": 486.86922976988353,
      "perigee_km": 484.36670470882837,
      "latitude_deg": 3.433290976882223e-05,
      "longitude_deg": -114.22750008982167,
      "height_km": 485.3682216961095,
      "semi_major_axis_km": 6863.754967239355,
      "eccentricity": 0.0001823,
      "inclination_deg": 43.0049,
      "raan_deg": 129.0266,
      "arg_perigee_deg": 271.2555,
      "mean_anomaly_deg": 88.8088,
      "mean_motion_rev_day": 15.26722498
    },
    {
      "epoch": "2026-05-02T10:58:18.377760Z",
      "apogee_km": 486.5607713149475,
      "perigee_km": 484.61284649797926,
      "latitude_deg": 1.0522538338834699e-05,
      "longitude_deg": 101.86221413993681,
      "height_km": 485.24916408797634,
      "semi_major_axis_km": 6863.723808906463,
      "eccentricity": 0.0001419,
      "inclination_deg": 43.0037,
      "raan_deg": 126.8137,
      "arg_perigee_deg": 276.773,
      "mean_anomaly_deg": 83.296,
      "mean_motion_rev_day": 15.26732894
    },
    {
      "epoch": "2026-05-04T16:20:08.971296Z",
      "apogee_km": 488.8124356850067,
      "perigee_km": 483.04524756487444,
      "latitude_deg": -3.7545942323697155e-05,
      "longitude_deg": 6.65946601769576,
      "height_km": 486.54812197921336,
      "semi_major_axis_km": 6864.065841624941,
      "eccentricity": 0.0004201,
      "inclination_deg": 43.0014,
      "raan_deg": 114.2634,
      "arg_perigee_deg": 107.1217,
      "mean_anomaly_deg": 253.0094,
      "mean_motion_rev_day": 15.26618781
    },
    {
      "epoch": "2026-05-05T20:00:03.000384Z",
      "apogee_km": 484.14135195653944,
      "perigee_km": 482.0939535681546,
      "latitude_deg": -30.31817998474893,
      "longitude_deg": 162.61493075594097,
      "height_km": 490.4773143367197,
      "semi_major_axis_km": 6861.254652762346,
      "eccentricity": 0.0001492,
      "inclination_deg": 43.001,
      "raan_deg": 107.7495,
      "arg_perigee_deg": 267.61,
      "mean_anomaly_deg": 319.8173,
      "mean_motion_rev_day": 15.27557105
    }
  ]
}